TLE2=2 22236  82.5001 267.2765 0015067 146.6187 213.5988 14.96248277782632
TLE2=2 21610  98.1986 132.9280 0003925  53.7981 306.3572 14.42902080820792
TLE2=2 22220  71.0007 161.8902 0010633  73.0029 347.4931 14.16862273723616
TLE2=2 21876  82.9224 258.4308 0035916  99.3793  73.2440 13.75969553711144
TLE2=2 21938  82.9317 144.4164 0027587 261.9676 164.8532 13.75550305702861
TLE2=2 22285  71.0237 338.2014 0006310 281.2596  78.7817 14.15450065714916
TLE2=2 21574  98.7872  99.8294 0032338 163.1087 197.1184 14.39458373817541
TLE2=2 21819  82.6029 302.5429 1486761  90.3227 286.7692 12.12042016498180
TLE2=2 22566  71.0080 188.7189 0012354 297.7085  62.2784 14.15306620703955
TLE2=2 21949  85.0061 124.2840 0002073  69.5102 290.6313 14.32371761 96568
TLE2=2 22219  71.0638 351.9539 0018251 189.2275 170.8515 14.14092904720144
TLE2=2 22286  82.5179 225.3136 0016599 258.8826 101.0530 14.97251268777933
